IRIDIUM 39              
1 25042U 97069D   25290.12884374  .00000910  00000+0  23259-3 0  9992
2 25042  86.3947 158.9061 0015614 258.7630 101.1819 14.49390501466621
IRIDIUM 38              
1 25043U 97069E   25290.41590086  .00000637  00000+0  20317-3 0  9997
2 25043  86.4023 181.7793 0004000  71.5464 288.6168 14.38240204463523
IRIDIUM 42              
1 25077U 97077A   25290.78142457  .00000565  00000+0  18592-3 0  9990
2 25077  86.4030 187.9386 0002973  82.3425 277.8110 14.36468044458790
IRIDIUM 44              
1 25078U 97077B   25290.61329139  .00000583  00000+0  17776-3 0  9990
2 25078  86.4011 169.6339 0002635  40.2129 319.9265 14.40361857461325
IRIDIUM 45              
1 25104U 97082A   25290.60055534  .00035107  00000+0  11031-2 0  9997
2 25104  86.3602 348.2565 0104080 230.4610 128.7406 15.27605111470694
IRIDIUM 24              
1 25105U 97082B   25290.56692358  .00000775  00000+0  22899-3 0  9992
2 25105  86.3952  28.3688 0012604  42.3581 317.8590 14.42246346460851
IRIDIUM 51              
1 25262U 98018A   25290.63796096  .00080662  00000+0  12303-2 0  9999
2 25262  86.3829 354.7777 0069229 136.0253 224.6545 15.51381107465929
IRIDIUM 57              
1 25273U 98019B   25290.81818095  .00000617  00000+0  20566-3 0  9999
2 25273  86.3906  93.8499 0002187  87.3096 272.8351 14.35983711442387
